C/2017 X1 (PANSTARRS),e,31.3183,251.1385,283.2255,31.14352,0.0056709,0.85010641,7.6813,02/28.0/2022,2000,g 10.0,4.0
# From MPC117069
C/2017 Y1 (PANSTARRS),e,55.2596,307.5112,134.2551,1768,0.0000133,0.99790375,0.0000,08/31.4633/2017,2000,g 11.5,4.0
# From MPEC 2022-D36
C/2017 Y2 (PANSTARRS),h,11/04.9337/2020,128.4207,65.9969,147.9185,1.000980,4.632783,2000,15.0,4.0
# From MPC111770
P/2017 Y3 (Leonard),e,27.5578,153.8433,67.6071,9.834128,0.0319595,0.86974208,47.2770,02/28.0/2022,2000,g 16.5,4.0
# From MPC114601
C/2018 A1 (PANSTARRS),e,53.6137,336.6592,96.2034,25.10236,0.0078367,0.90401297,12.4678,02/28.0/2022,2000,g 12.5,4.0
# From MPEC 2021-P47
C/2018 A3 (ATLAS),e,139.5375,194.2931,86.3649,406.5544,0.0001202,0.99194086,0.0000,01/11.8958/2019,2000,g  8.5,4.0
# From MPC114601
C/2018 A4 (PANSTARRS),e,3.1492,97.6069,355.9816,12.18733,0.0231655,0.80350507,31.9972,02/28.0/2022,2000,g 14.0,4.0
# From MPC109147
P/2018 A5 (PANSTARRS),e,23.5932,87.8058,359.5086,5.631213,0.0737566,0.52276332,119.3921,02/28.0/2022,2000,g 15.0,4.0
# From MPEC 2022-C56
C/2018 A6 (Gibbs),e,77.0571,340.3812,264.4097,15.12187,0.0167608,0.80044822,16.1132,02/28.0/2022,2000,g  9.0,4.0
# From MPC118841
C/2018 B1 (Lemmon),e,162.4207,133.1901,68.3470,13186,0.0000007,0.99961151,0.0000,03/28.5271/2018,2000,g  9.0,4.0
# From MPC114601
P/2018 C1 (Lemmon-Read),e,5.1148,270.3565,235.7067,5.653624,0.0733185,0.53221738,107.3915,02/28.0/2022,2000,g 13.5,4.0
# From MPC114601
C/2018 C2 (Lemmon),h,05/31.9953/2018,34.4622,91.1909,134.0799,1.000331,1.960187,2000,13.0,4.0
# From MPEC 2021-U31
C/2018 DO4 (Lemmon),e,160.4517,251.3854,176.2576,25.44399,0.0076794,0.90521474,7.1076,02/28.0/2022,2000,g 11.0,4.0
# From MPC114602
C/2018 E1 (ATLAS),e,72.5144,146.8631,299.3283,53.86870,0.0024929,0.94993734,3.5208,02/28.0/2022,2000,g 10.5,4.0
# From MPC114602
C/2018 E2 (Barros),e,97.6598,67.1741,277.4488,3603,0.0000046,0.99891221,0.0000,12/23.9411/2017,2000,g 10.5,4.0
# From MPC114602
C/2018 EN4 (NEOWISE),e,81.9287,136.1281,35.0703,18.03102,0.0128728,0.91900161,17.5741,02/28.0/2022,2000,g 15.0,4.0
# From MPC114602
C/2018 EF9 (Lemmon),e,84.6185,172.5546,72.6232,490.0127,0.0000909,0.99681743,0.0000,05/22.0643/2018,2000,g 18.0,2.0
# From MPEC 2021-R75
C/2018 F1 (Grauer),e,46.0780,177.2757,71.6102,257.4911,0.0002385,0.98836588,0.0000,12/12.9597/2018,2000,g 11.5,4.0
# From MPC110084
C/2018 F3 (Johnson),p,08/15.2314/2017,105.5348,293.0113,2.483172,173.0311,2000,13.0,4.0
# From MPEC 2021-W31
C/2018 F4 (PANSTARRS),h,12/03.8687/2019,78.0866,26.5157,263.2305,1.000640,3.441768,2000,11.0,6.0
# From MPEC 2021-Y10
C/2018 F4-A,h,12/03.8570/2019,78.0868,26.5159,263.2273,1.000588,3.441636,2000,11.0,6.0
# From MPEC 2021-W31
C/2018 F4-B,h,12/03.7932/2019,78.0875,26.5155,263.2123,1.000685,3.441418,2000,11.0,6.0
# From MPC114602
P/2018 H2 (PANSTARRS),e,7.3946,68.2386,119.9516,4.386900,0.1072673,0.54106838,160.7358,02/28.0/2022,2000,g 16.6,2.0
# From MPC114602
C/2018 K1 (Weiland),e,164.1928,260.1104,325.1831,30.12773,0.0059601,0.93750261,8.4800,02/28.0/2022,2000,g 14.9,4.0
# From MPEC 2021-R75
C/2018 KJ3 (Lemmon),e,136.6958,91.6257,217.6771,942.7861,0.0000340,0.99615021,0.0000,09/09.8893/2019,2000,g 12.2,2.0
# From MPC114602
P/2018 L1 (PANSTARRS),e,10.5859,268.6288,18.0253,3.652454,0.1411975,0.48234900,169.9558,02/28.0/2022,2000,g 15.0,4.0
# From MPEC 2021-P47
C/2018 L2 (ATLAS),e,67.3225,243.0159,56.3024,261.2776,0.0002334,0.99343895,0.0000,12/02.5848/2018,2000,g 10.0,4.0
# From MPC114603
P/2018 L4 (PANSTARRS),e,26.6244,145.1557,140.6130,4.943485,0.0896714,0.65965290,117.2440,02/28.0/2022,2000,g 17.5,4.0
# From MPC119996
P/2018 L5 (Leonard),e,2.2082,219.0762,93.9056,3.628558,0.1425946,0.36455141,198.8569,02/28.0/2022,2000,g 14.5,4.0
# From MPC117070
C/2018 M1 (Catalina),e,37.3008,339.4093,14.2027,21.43729,0.0099300,0.93920552,13.1905,02/28.0/2022,2000,g 15.5,4.0
# From MPC112393
C/2018 N1 (NEOWISE),e,159.4318,292.4822,354.6930,376.4713,0.0001349,0.99651858,0.0000,08/02.2745/2018,2000,g 15.5,4.0
# From MPEC 2022-CN4
C/2018 N2 (ASASSN),h,11/11.0910/2019,77.5404,25.2199,24.4347,1.000436,3.125770,2000,6.0,4.0
# From MPC114603
C/2018 O1 (ATLAS),e,154.0231,87.7096,162.6614,28.03407,0.0066401,0.94433654,8.4731,02/28.0/2022,2000,g 17.0,4.0
# From MPC114603
P/2018 P3 (PANSTARRS),e,8.9119,59.1639,305.9242,3.005162,0.1891918,0.41690747,233.9117,02/28.0/2022,2000,g 14.5,4.0
# From MPC114603
P/2018 P4 (PANSTARRS),e,23.1096,353.0620,8.3302,6.678788,0.0571028,0.45065682,68.9435,02/28.0/2022,2000,g 12.0,4.0
# From MPEC 2021-P47
C/2018 P5 (PANSTARRS),e,7.2493,216.2208,131.8452,12.82655,0.0214555,0.64282742,23.5211,02/28.0/2022,2000,g 11.0,4.0
# From MPC118841
C/2018 R3 (Lemmon),e,69.7269,324.6339,112.7761,1569,0.0000159,0.99917999,0.0000,06/07.4484/2019,2000,g  9.5,4.0
# From MPC112393
C/2018 R4 (Fuls),e,11.6787,298.4776,345.3173,336.5533,0.0001596,0.99489266,0.0000,03/03.2401/2018,2000,g 14.0,4.0
# From MPC114603
C/2018 R5 (Lemmon),e,103.7496,171.1145,178.1195,22.82891,0.0090360,0.84111066,10.3452,02/28.0/2022,2000,g 11.5,4.0
# From MPEC 2022-D36
C/2018 U1 (Lemmon),h,11/03.1229/2021,108.3023,75.4807,180.4695,1.001437,4.992996,2000,5.0,4.0
# From MPC114604
C/2018 V1 (Machholz-Fujikawa-Iwamoto),h,12/02.9703/2018,144.0662,128.9299,88.9391,1.000333,0.388215,2000,12.0,4.0
# From MPC115884
C/2018 V2 (ATLAS),e,159.1676,357.0808,318.9569,25.04191,0.0078651,0.90096766,9.3611,02/28.0/2022,2000,g 15.0,4.0
# From MPC114604
P/2018 VN2 (Leonard),e,18.2563,226.4757,138.7952,4.064268,0.1202903,0.47881256,163.9002,02/28.0/2022,2000,g 15.0,4.0
# From MPEC 2021-P47
A/2018 V3,e,164.9748,308.6681,3.5720,125.0518,0.0007048,0.98927325,0.0000,09/08.8186/2019,2000,g 15.7,2.0
# From MPC114604
C/2018 V4 (Africano),e,69.0119,78.3267,359.9273,203.8819,0.0003386,0.98432653,0.0000,03/01.3845/2019,2000,g 12.5,4.0
# From MPEC 2021-P47
P/2018 V5 (Trujillo-Sheppard),e,10.5885,171.2865,260.6587,8.956091,0.0367728,0.47505871,45.7459,02/28.0/2022,2000,g 12.5,4.0
# From MPEC 2021-P47
C/2018 W1 (Catalina),e,83.3190,233.6216,251.2332,21.67778,0.0097652,0.93725030,9.9930,02/28.0/2022,2000,g 15.5,2.0
# From MPEC 2021-P47
C/2018 W2 (Africano),h,09/05.4756/2019,116.6236,181.8239,158.0073,1.000430,1.457386,2000,9.5,4.0
# From MPC119996
C/2018 X2 (Fitzsimmons),e,23.0694,340.8300,162.0025,142.4529,0.0005797,0.98508414,0.0000,07/08.2193/2019,2000,g 12.0,4.0
# From MPC114604
C/2018 X3 (PANSTARRS),e,43.3852,78.8699,359.7338,12.37009,0.0226540,0.78225852,26.1722,02/28.0/2022,2000,g 14.5,4.0
# From MPC118842
C/2018 Y1 (Iwamoto),e,160.4004,147.5099,357.9705,135.3720,0.0006258,0.99051598,0.0000,02/06.6535/2019,2000,g 11.5,4.0
# From MPC114605
P/2018 Y2 (Africano),e,11.6825,297.2456,162.2735,7.456300,0.0484082,0.47877599,55.8408,02/28.0/2022,2000,g 11.5,4.0
# From MPC114605
P/2019 A1 (PANSTARRS),e,13.7456,312.2923,150.7302,5.119254,0.0850930,0.56855548,105.2095,02/28.0/2022,2000,g 16.0,4.0
# From MPEC 2021-P47
P/2019 A2 (ATLAS),e,14.8599,139.4672,323.9266,5.717764,0.0720883,0.38156196,86.2077,02/28.0/2022,2000,g 10.5,4.0
# From MPEC 2021-P47
P/2019 A3 (PANSTARRS),e,15.3727,31.2919,325.5600,3.145837,0.1766444,0.26593698,230.4651,02/28.0/2022,2000,g 16.0,4.0
# From MPC114605
P/2019 A4 (PANSTARRS),e,13.3069,119.2635,342.4943,2.614889,0.2330902,0.08728671,274.5939,02/28.0/2022,2000,g 15.0,4.0
# From MPEC 2021-P47
C/2019 A5 (PANSTARRS),e,67.5583,146.6257,355.8859,21.53140,0.0098650,0.70650209,9.8298,02/28.0/2022,2000,g  9.5,4.0
# From MPC114605
P/2019 A6 (Lemmon-PANSTARRS),e,33.2422,280.2385,156.1801,5.359605,0.0794337,0.63936754,101.5657,02/28.0/2022,2000,g 16.0,4.0
# From MPC115884
P/2019 A8 (PANSTARRS),e,2.2663,116.8570,63.6245,4.167182,0.1158618,0.27652707,144.9776,02/28.0/2022,2000,g 16.0,4.0
# From MPC118842
C/2019 A9 (PANSTARRS),e,84.1837,278.3864,237.9355,39.28320,0.0040031,0.96357373,3.7944,02/28.0/2022,2000,g 15.0,4.0
# From MPC114606
C/2019 B1 (Africano),e,123.3726,290.4209,174.8069,139.7814,0.0005964,0.98857724,0.0000,03/19.2906/2019,2000,g 16.0,4.0
# From MPC115885
P/2019 B2 (Groeller),e,17.0001,175.7795,0.8191,3.893910,0.1282700,0.36767123,127.7951,02/28.0/2022,2000,g 14.5,4.0
# From MPEC 2022-C56
C/2019 B3 (PANSTARRS),h,01/20.3695/2021,66.5355,358.4363,263.9411,1.001360,6.823582,2000,5.5,4.0
# From MPEC 2021-P47
C/2019 C1 (ATLAS),e,36.0396,212.3862,319.1468,680.7357,0.0000555,0.99033412,0.0000,05/05.0094/2020,2000,g 10.0,4.0
# From MPC118842
C/2019 D1 (Flewelling),e,34.0465,231.6950,70.5968,143.0611,0.0005760,0.98894479,0.0000,05/11.7400/2019,2000,g 13.0,4.0
# From MPEC 2022-D36
C/2019 E3 (ATLAS),h,11/13.8746/2023,84.2975,347.2537,280.6492,1.001968,10.313781,2000,2.5,4.0
# From MPEC 2022-C56
C/2019 F1 (ATLAS-Africano),h,06/22.9755/2021,54.1765,38.7141,251.1619,1.003727,3.596056,2000,5.5,4.0
# From MPEC 2021-P47
C/2019 F2 (ATLAS),e,19.2278,175.5658,11.5242,16.67239,0.0144780,0.86538740,13.0797,02/28.0/2022,2000,g 12.0,4.0
# From MPEC 2021-P47
A/2019 G2,e,159.2075,208.1526,82.6196,550.2595,0.0000764,0.99583544,0.0000,12/09.6303/2019,2000,g 16.5,2.0
# From MPEC 2021-N06
A/2019 G4,h,09/16.1037/2018,138.3786,130.4631,287.8485,1.002037,5.854978,2000,13.0,2.0
# From MPC114607
P/2019 GG21 (PANSTARRS),e,6.0844,340.5682,208.6121,7.473364,0.0482425,0.47233074,49.4095,02/28.0/2022,2000,g 12.0,4.0
# From MPC115885
C/2019 H1 (NEOWISE),e,104.5304,269.2262,19.3465,241.2051,0.0002631,0.99234582,0.0000,04/27.9222/2019,2000,g 15.5,4.0
# From MPC118842
C/2019 J1 (Lemmon),e,24.5484,98.1132,167.7893,69.00145,0.0017196,0.96402716,1.8163,02/28.0/2022,2000,g 12.0,4.0
# From MPEC 2021-R75
C/2019 J2 (Palomar),e,105.2111,25.5325,98.7314,160.6844,0.0004839,0.98926182,0.0000,07/19.8714/2019,2000,g 13.0,4.0
# From MPC117071
C/2019 J3 (ATLAS),h,08/02.1567/2019,131.3935,270.5565,16.6180,1.000615,2.374186,2000,13.5,4.0
# From MPC117071
C/2019 JU6 (ATLAS),e,148.3245,21.7693,94.9554,360.9533,0.0001437,0.99433048,0.0000,06/01.1307/2019,2000,g 14.5,4.0
# From MPEC 2021-P47
C/2019 K1 (ATLAS),h,02/12.9801/2020,87.1068,73.3679,265.7146,1.000022,2.012683,2000,10.0,4.0
# From MPC119997
